start=new Date('2022-12-03T00:00:00.000Z').valueOf();
sats=[{"BSTAR":"0.00009548800000","MEAN_MOTION_DDOT":"0.0000000000000","OBJECT_NAME":"STARLINK-4195","EPOCH":"2022-12-02T17:37:16.120704","GP_ID":"219384329","LAUNCH_DATE":"2022-06-17","APOAPSIS":"541.881","DECAY_DATE":null,"SEMIMAJOR_AXIS":"6917.905","RCS_SIZE":"LARGE","MEAN_ANOMALY":"332.2447","TIME_SYSTEM":"UTC","NORAD_CAT_ID":"52870","MEAN_MOTION":"15.08832083","OBJECT_TYPE":"PAYLOAD","ECCENTRICITY":"0.00030520","ELEMENT_SET_NO":"999","CLASSIFICATION_TYPE":"U","REF_FRAME":"TEME","PERIOD":"95.438","EPHEMERIS_TYPE":"0","INCLINATION":"53.2177","SITE":"AFETR","ARG_OF_PERICENTER":"27.8709","PERIAPSIS":"537.658","OBJECT_ID":"2022-062AS","RA_OF_ASC_NODE":"339.5166","CENTER_NAME":"EARTH","TLE_LINE1":"1 52870U 22062AS  22336.73421436  .00001231  00000-0  95488-4 0  9995","MEAN_ELEMENT_THEORY":"SGP4","MEAN_MOTION_DOT":"0.00001231","TLE_LINE2":"2 52870  53.2177 339.5166 0003052  27.8709 332.2447 15.08832083 25836","REV_AT_EPOCH":"2583","FILE":"3679625","COUNTRY_CODE":"US"},{"BSTAR":"0.00003108000000","MEAN_MOTION_DDOT":"0.0000000000000","OBJECT_NAME":"STARLINK-4207","DECAY_DATE":null,"LAUNCH_DATE":"2022-06-17","APOAPSIS":"541.518","GP_ID":"219384883","EPOCH":"2022-12-02T17:06:46.968768","SEMIMAJOR_AXIS":"6917.879","NORAD_CAT_ID":"52871","TIME_SYSTEM":"UTC","MEAN_ANOMALY":"324.6075","RCS_SIZE":"LARGE","ELEMENT_SET_NO":"999","ECCENTRICITY":"0.00025650","MEAN_MOTION":"15.08840531","OBJECT_TYPE":"PAYLOAD","CLASSIFICATION_TYPE":"U","REF_FRAME":"TEME","EPHEMERIS_TYPE":"0","PERIOD":"95.438","SITE":"AFETR","INCLINATION":"53.2178","ARG_OF_PERICENTER":"35.5088","RA_OF_ASC_NODE":"329.5964","PERIAPSIS":"537.969","OBJECT_ID":"2022-062AT","CENTER_NAME":"EARTH","TLE_LINE2":"2 52871  53.2178 329.5964 0002565  35.5088 324.6075 15.08840531 25960","REV_AT_EPOCH":"2596","MEAN_MOTION_DOT":"0.00000206","MEAN_ELEMENT_THEORY":"SGP4","TLE_LINE1":"1 52871U 22062AT  22336.71304362  .00000206  00000-0  31080-4 0  9991","COUNTRY_CODE":"US","FILE":"3679625"},{"ARG_OF_PERICENTER":"47.0634","RA_OF_ASC_NODE":"330.7525","PERIAPSIS":"538.481","OBJECT_ID":"2022-062AU","PERIOD":"95.438","EPHEMERIS_TYPE":"0","SITE":"AFETR","INCLINATION":"53.2162","MEAN_ELEMENT_THEORY":"SGP4","TLE_LINE2":"2 52872  53.2162 330.7525 0001839  47.0634 313.0512 15.08837585 26413","MEAN_MOTION_DOT":"0.00000319","REV_AT_EPOCH":"2641","TLE_LINE1":"1 52872U 22062AU  22336.45544672  .00000319  00000-0  38176-4 0  9991","COUNTRY_CODE":"US","FILE":"3679503","CENTER_NAME":"EARTH","MEAN_MOTION_DDOT":"0.0000000000000","OBJECT_NAME":"STARLINK-4213","LAUNCH_DATE":"2022-06-17","APOAPSIS":"541.025","DECAY_DATE":null,"EPOCH":"2022-12-02T10:55:50.596608","GP_ID":"219358463","BSTAR":"0.00003817600000","ELEMENT_SET_NO":"999","ECCENTRICITY":"0.00018390","OBJECT_TYPE":"PAYLOAD","MEAN_MOTION":"15.08837585","REF_FRAME":"TEME","CLASSIFICATION_TYPE":"U","SEMIMAJOR_AXIS":"6917.888","TIME_SYSTEM":"UTC","NORAD_CAT_ID":"52872","RCS_SIZE":"LARGE","MEAN_ANOMALY":"313.0512"},{"CENTER_NAME":"EARTH","FILE":"3679625","COUNTRY_CODE":"US","TLE_LINE1":"1 52873U 22062AV  22336.70568621  .00000023  00000-0  19561-4 0  9999","MEAN_ELEMENT_THEORY":"SGP4","TLE_LINE2":"2 52873  53.2197 329.6360 0002314  41.4644 318.6523 15.08833879 25968","MEAN_MOTION_DOT":"0.00000023","REV_AT_EPOCH":"2596","INCLINATION":"53.2197","SITE":"AFETR","PERIOD":"95.438","EPHEMERIS_TYPE":"0","OBJECT_ID":"2022-062AV","PERIAPSIS":"538.163","RA_OF_ASC_NODE":"329.6360","ARG_OF_PERICENTER":"41.4644","MEAN_ANOMALY":"318.6523","RCS_SIZE":"LARGE","TIME_SYSTEM":"UTC","NORAD_CAT_ID":"52873","SEMIMAJOR_AXIS":"6917.899","REF_FRAME":"TEME","CLASSIFICATION_TYPE":"U","MEAN_MOTION":"15.08833879","OBJECT_TYPE":"PAYLOAD","ELEMENT_SET_NO":"999","ECCENTRICITY":"0.00023140","BSTAR":"0.00001956100000","EPOCH":"2022-12-02T16:56:11.288544","GP_ID":"219383776","APOAPSIS":"541.365","LAUNCH_DATE":"2022-06-17","DECAY_DATE":null,"MEAN_MOTION_DDOT":"0.0000000000000","OBJECT_NAME":"STARLINK-4211"},{"RA_OF_ASC_NODE":"331.0649","OBJECT_ID":"2022-062AW","PERIAPSIS":"538.396","ARG_OF_PERICENTER":"36.1067","INCLINATION":"53.2176","SITE":"AFETR","EPHEMERIS_TYPE":"0","PERIOD":"95.437","COUNTRY_CODE":"US","FILE":"3679245","TLE_LINE2":"2 52874  53.2176 331.0649 0001931  36.1067 324.0055 15.08844576 25919","REV_AT_EPOCH":"2591","MEAN_MOTION_DOT":"0.00000699","MEAN_ELEMENT_THEORY":"SGP4","TLE_LINE1":"1 52874U 22062AW  22336.38551602  .00000699  00000-0  62012-4 0  9993","CENTER_NAME":"EARTH","DECAY_DATE":null,"LAUNCH_DATE":"2022-06-17","APOAPSIS":"541.067","GP_ID":"219353458","EPOCH":"2022-12-02T09:15:08.584128","MEAN_MOTION_DDOT":"0.0000000000000","OBJECT_NAME":"STARLINK-4210","BSTAR":"0.00006201200000","CLASSIFICATION_TYPE":"U","REF_FRAME":"TEME","ECCENTRICITY":"0.00019310","ELEMENT_SET_NO":"999","MEAN_MOTION":"15.08844576","OBJECT_TYPE":"PAYLOAD","NORAD_CAT_ID":"52874","TIME_SYSTEM":"UTC","MEAN_ANOMALY":"324.0055","RCS_SIZE":"LARGE","SEMIMAJOR_AXIS":"6917.866"},{"CLASSIFICATION_TYPE":"U","REF_FRAME":"TEME","OBJECT_TYPE":"PAYLOAD","MEAN_MOTION":"15.08838058","ECCENTRICITY":"0.00027450","ELEMENT_SET_NO":"999","RCS_SIZE":"LARGE","MEAN_ANOMALY":"327.6357","NORAD_CAT_ID":"52875","TIME_SYSTEM":"UTC","SEMIMAJOR_AXIS":"6917.886","GP_ID":"219384515","EPOCH":"2022-12-02T16:50:53.046240","DECAY_DATE":null,"APOAPSIS":"541.650","LAUNCH_DATE":"2022-06-17","MEAN_MOTION_DDOT":"0.0000000000000","OBJECT_NAME":"STARLINK-4193","BSTAR":"0.00002702100000","FILE":"3679625","COUNTRY_CODE":"US","TLE_LINE1":"1 52875U 22062AX  22336.70200285  .00000142  00000-0  27021-4 0  9992","TLE_LINE2":"2 52875  53.2180 329.6484 0002745  32.4803 327.6357 15.08838058 25963","REV_AT_EPOCH":"2596","MEAN_MOTION_DOT":"0.00000142","MEAN_ELEMENT_THEORY":"SGP4","CENTER_NAME":"EARTH","OBJECT_ID":"2022-062AX","PERIAPSIS":"537.852","RA_OF_ASC_NODE":"329.6484","ARG_OF_PERICENTER":"32.4803","INCLINATION":"53.2180","SITE":"AFETR","EPHEMERIS_TYPE":"0","PERIOD":"95.438"},{"INCLINATION":"53.2169","SITE":"AFETR","EPHEMERIS_TYPE":"0","PERIOD":"95.438","RA_OF_ASC_NODE":"329.6113","PERIAPSIS":"537.951","OBJECT_ID":"2022-062AY","ARG_OF_PERICENTER":"30.9567","CENTER_NAME":"EARTH","COUNTRY_CODE":"US","FILE":"3679625","MEAN_MOTION_DOT":"0.00000611","TLE_LINE2":"2 52876  53.2169 329.6113 0002595  30.9567 329.1578 15.08839863 25960","REV_AT_EPOCH":"2596","MEAN_ELEMENT_THEORY":"SGP4","TLE_LINE1":"1 52876U 22062AY  22336.70936730  .00000611  00000-0  56527-4 0  9998","BSTAR":"0.00005652700000","DECAY_DATE":null,"LAUNCH_DATE":"2022-06-17","APOAPSIS":"541.541","GP_ID":"219385069","EPOCH":"2022-12-02T17:01:29.334720","OBJECT_NAME":"STARLINK-4200","MEAN_MOTION_DDOT":"0.0000000000000","NORAD_CAT_ID":"52876","TIME_SYSTEM":"UTC","MEAN_ANOMALY":"329.1578","RCS_SIZE":"LARGE","SEMIMAJOR_AXIS":"6917.881","CLASSIFICATION_TYPE":"U","REF_FRAME":"TEME","ECCENTRICITY":"0.00025950","ELEMENT_SET_NO":"999","OBJECT_TYPE":"PAYLOAD","MEAN_MOTION":"15.08839863"},{"CLASSIFICATION_TYPE":"U","REF_FRAME":"TEME","ECCENTRICITY":"0.00022840","ELEMENT_SET_NO":"999","OBJECT_TYPE":"PAYLOAD","MEAN_MOTION":"15.08840157","NORAD_CAT_ID":"52877","TIME_SYSTEM":"UTC","MEAN_ANOMALY":"320.9187","RCS_SIZE":"LARGE","SEMIMAJOR_AXIS":"6917.880","DECAY_DATE":null,"LAUNCH_DATE":"2022-06-17","APOAPSIS":"541.325","GP_ID":"219353273","EPOCH":"2022-12-02T09:52:15.249504","OBJECT_NAME":"STARLINK-4214","MEAN_MOTION_DDOT":"0.0000000000000","BSTAR":"0.00008471800000","COUNTRY_CODE":"US","FILE":"3679245","TLE_LINE2":"2 52877  53.2194 330.9452 0002284  39.1970 320.9187 15.08840157 25923","MEAN_MOTION_DOT":"0.00001060","REV_AT_EPOCH":"2592","MEAN_ELEMENT_THEORY":"SGP4","TLE_LINE1":"1 52877U 22062AZ  22336.41128761  .00001060  00000-0  84718-4 0  9996","CENTER_NAME":"EARTH","RA_OF_ASC_NODE":"330.9452","PERIAPSIS":"538.165","OBJECT_ID":"2022-062AZ","ARG_OF_PERICENTER":"39.1970","INCLINATION":"53.2194","SITE":"AFETR","EPHEMERIS_TYPE":"0","PERIOD":"95.438"},{"MEAN_MOTION":"15.08839913","OBJECT_TYPE":"PAYLOAD","ELEMENT_SET_NO":"999","ECCENTRICITY":"0.00026270","REF_FRAME":"TEME","CLASSIFICATION_TYPE":"U","SEMIMAJOR_AXIS":"6917.881","MEAN_ANOMALY":"322.4982","RCS_SIZE":"LARGE","NORAD_CAT_ID":"52878","TIME_SYSTEM":"UTC","OBJECT_NAME":"STARLINK-4171","MEAN_MOTION_DDOT":"0.0000000000000","GP_ID":"219384330","EPOCH":"2022-12-02T16:45:35.150400","DECAY_DATE":null,"LAUNCH_DATE":"2022-06-17","APOAPSIS":"541.563","BSTAR":"0.00008822700000","TLE_LINE1":"1 52878U 22062BA  22336.69832350  .00001116  00000-0  88227-4 0  9994","REV_AT_EPOCH":"2596","TLE_LINE2":"2 52878  53.2184 329.6632 0002627  37.6193 322.4982 15.08839913 25961","MEAN_MOTION_DOT":"0.00001116","MEAN_ELEMENT_THEORY":"SGP4","FILE":"3679625","COUNTRY_CODE":"US","CENTER_NAME":"EARTH","ARG_OF_PERICENTER":"37.6193","PERIAPSIS":"537.928","OBJECT_ID":"2022-062BA","RA_OF_ASC_NODE":"329.6632","EPHEMERIS_TYPE":"0","PERIOD":"95.438","SITE":"AFETR","INCLINATION":"53.2184"},{"MEAN_ELEMENT_THEORY":"SGP4","TLE_LINE2":"2 52879  53.2194 330.9973 0002636  38.7386 321.3794 15.08851852 25923","MEAN_MOTION_DOT":"0.00001766","REV_AT_EPOCH":"2592","TLE_LINE1":"1 52879U 22062BB  22336.40024460  .00001766  00000-0  12900-3 0  9994","COUNTRY_CODE":"US","FILE":"3679245","CENTER_NAME":"EARTH","ARG_OF_PERICENTER":"38.7386","RA_OF_ASC_NODE":"330.9973","OBJECT_ID":"2022-062BB","PERIAPSIS":"537.886","PERIOD":"95.437","EPHEMERIS_TYPE":"0","INCLINATION":"53.2194","SITE":"AFETR","ECCENTRICITY":"0.00026360","ELEMENT_SET_NO":"999","MEAN_MOTION":"15.08851852","OBJECT_TYPE":"PAYLOAD","REF_FRAME":"TEME","CLASSIFICATION_TYPE":"U","SEMIMAJOR_AXIS":"6917.844","TIME_SYSTEM":"UTC","NORAD_CAT_ID":"52879","RCS_SIZE":"LARGE","MEAN_ANOMALY":"321.3794","MEAN_MOTION_DDOT":"0.0000000000000","OBJECT_NAME":"STARLINK-4139","LAUNCH_DATE":"2022-06-17","APOAPSIS":"541.533","DECAY_DATE":null,"EPOCH":"2022-12-02T09:36:21.133440","GP_ID":"219352533","BSTAR":"0.00012900000000"}];
